[{"OBJECT_NAME":"STARLINK-5464","OBJECT_ID":"2022-175A","EPOCH":"2026-03-09T22:27:08.075232","MEAN_MOTION":15.08835229,"ECCENTRICITY":0.00012811,"INCLINATION":53.218,"RA_OF_ASC_NODE":38.2078,"ARG_OF_PERICENTER":90.2925,"MEAN_ANOMALY":269.8214,"EPHEMERIS_TYPE":0,"CLASSIFICATION_TYPE":"U","NORAD_CAT_ID":54758,"ELEMENT_SET_NO":999,"REV_AT_EPOCH":18002,"BSTAR":1.1991324e-5,"MEAN_MOTION_DOT":-9.7e-7,"MEAN_MOTION_DDOT":0},{"OBJECT_NAME":"SL-12 R\/B(AUX MOTOR)","OBJECT_ID":"1982-100G","EPOCH":"2026-03-09T09:10:56.866368","MEAN_MOTION":6.00084542,"ECCENTRICITY":0.47885792,"INCLINATION":52.06,"RA_OF_ASC_NODE":67.4357,"ARG_OF_PERICENTER":283.5464,"MEAN_ANOMALY":29.1019,"EPHEMERIS_TYPE":0,"CLASSIFICATION_TYPE":"U","NORAD_CAT_ID":13609,"ELEMENT_SET_NO":999,"REV_AT_EPOCH":80860,"BSTAR":0.0014454194,"MEAN_MOTION_DOT":0.00012475,"MEAN_MOTION_DDOT":0}]
